{
  "norad_id": 57942,
  "name": "STARLINK-30455",
  "history": [
    {
      "epoch": "2026-03-28T20:46:42.014784",
      "apogee_km": 475.9425857346505,
      "perigee_km": 474.5126997355901,
      "latitude_deg": 22.56422955992302,
      "longitude_deg": 57.3133497601375,
      "semi_major_axis_km": 6853.3646427351205,
      "eccentricity": 0.00010432,
      "inclination_deg": 53.1602,
      "raan_deg": 295.4118,
      "arg_perigee_deg": 80.2934,
      "mean_anomaly_deg": 279.8184,
      "mean_motion_rev_day": 15.30195789
    }
  ]
}